{"type":"FeatureCollection","metadata":{"generatedAt":"2026-09-23T01:44:18.897Z","source":"OpenStreetMap","sourceUrl":"https://www.openstreetmap.org/copyright","attribution":"© OpenStreetMap contributors","routeCount":1},"features":[{"type":"Feature","properties":{"agency":"EWR AirTrain","color":"#C81858","description":"AirTrain Newark","route":"AirTrain","routeId":"AIRTRAIN","shapeId":"osm-way-39172330"},"geometry":{"type":"LineString","coordinates":[[-74.182406,40.696977],[-74.182428,40.696992],[-74.182468,40.697011],[-74.182511,40.697033],[-74.182558,40.697053],[-74.182612,40.697072],[-74.182667,40.697099],[-74.18272,40.697131],[-74.185816,40.699198],[-74.185896,40.699249],[-74.185969,40.699293],[-74.186044,40.699335],[-74.186111,40.699371],[-74.186198,40.699415],[-74.186282,40.69945],[-74.186363,40.699482],[-74.186446,40.699509],[-74.186531,40.699533],[-74.186629,40.699556],[-74.186718,40.699573],[-74.186807,40.699585],[-74.186891,40.699593],[-74.186974,40.699598],[-74.18705,40.6996],[-74.187132,40.699599],[-74.187217,40.699594],[-74.1873,40.699588],[-74.187381,40.699579],[-74.18747,40.699565],[-74.187568,40.699551],[-74.187666,40.699532],[-74.187765,40.699512],[-74.190457,40.69896],[-74.190535,40.698945],[-74.19062,40.69893],[-74.190694,40.69892],[-74.190775,40.698914],[-74.190859,40.698909],[-74.190939,40.698908],[-74.191016,40.698912],[-74.19111,40.69892],[-74.1912,40.698932],[-74.191287,40.698946],[-74.191363,40.698963],[-74.191436,40.698982],[-74.191516,40.699007],[-74.19159,40.699033],[-74.191661,40.699064],[-74.191734,40.699097],[-74.19179,40.699127],[-74.191847,40.69916],[-74.191899,40.699193],[-74.191951,40.699229],[-74.192003,40.699269],[-74.192057,40.699314],[-74.192105,40.699359],[-74.192144,40.699399],[-74.19218,40.69944],[-74.192217,40.699484],[-74.192248,40.699526],[-74.192275,40.699567],[-74.192303,40.699616],[-74.192328,40.699666],[-74.192348,40.69971],[-74.192365,40.699753],[-74.192382,40.699807],[-74.192396,40.699855],[-74.192407,40.699906],[-74.192416,40.699962],[-74.19242,40.700015],[-74.192421,40.700068],[-74.192419,40.700119],[-74.192412,40.700168],[-74.192403,40.700219],[-74.192393,40.700271],[-74.192379,40.700321],[-74.192363,40.70037],[-74.192343,40.700421],[-74.192319,40.700474],[-74.192298,40.700516],[-74.192276,40.700556],[-74.191733,40.701546],[-74.191726,40.701559],[-74.191688,40.701624],[-74.191647,40.701692]]}},{"type":"Feature","properties":{"agency":"EWR AirTrain","color":"#C81858","description":"AirTrain Newark","route":"AirTrain","routeId":"AIRTRAIN","shapeId":"osm-way-433172125"},"geometry":{"type":"LineString","coordinates":[[-74.191682,40.701705],[-74.191725,40.701637],[-74.191762,40.701572],[-74.192315,40.700568],[-74.192337,40.700528],[-74.192358,40.700485],[-74.192383,40.70043],[-74.192403,40.700379],[-74.19242,40.700328],[-74.192434,40.700277],[-74.192445,40.700224],[-74.192454,40.700172],[-74.19246,40.700121],[-74.192463,40.700068],[-74.192462,40.700014],[-74.192457,40.699959],[-74.192448,40.699902],[-74.192437,40.699849],[-74.192423,40.6998],[-74.192406,40.699745],[-74.192388,40.6997],[-74.192368,40.699655],[-74.192342,40.699604],[-74.192313,40.699554],[-74.192285,40.699511],[-74.192253,40.699468],[-74.192216,40.699423],[-74.192178,40.69938],[-74.192138,40.69934],[-74.192089,40.699293],[-74.192034,40.699247],[-74.19198,40.699206],[-74.191926,40.699169],[-74.191873,40.699135],[-74.191815,40.699101],[-74.191757,40.69907],[-74.191682,40.699037],[-74.191609,40.699005],[-74.191533,40.698978],[-74.191451,40.698952],[-74.191376,40.698932],[-74.191297,40.698915],[-74.191208,40.6989],[-74.191116,40.698889],[-74.19102,40.69888],[-74.19094,40.698876],[-74.190857,40.698877],[-74.190771,40.698882],[-74.190688,40.698889],[-74.190612,40.698899],[-74.190526,40.698914],[-74.190447,40.698929],[-74.187754,40.69948],[-74.187656,40.6995],[-74.187558,40.699518],[-74.187462,40.699533],[-74.187373,40.699546],[-74.187295,40.699555],[-74.187213,40.699561],[-74.18713,40.699565],[-74.18705,40.699566],[-74.186977,40.699564],[-74.186896,40.69956],[-74.186814,40.699552],[-74.186727,40.69954],[-74.186641,40.699524],[-74.186545,40.699502],[-74.186462,40.699478],[-74.186381,40.699452],[-74.186302,40.699421],[-74.186221,40.699386],[-74.186136,40.699344],[-74.18607,40.699308],[-74.185996,40.699267],[-74.185924,40.699223],[-74.185844,40.699173],[-74.182737,40.697101],[-74.182698,40.697072],[-74.182662,40.69704],[-74.182633,40.697007],[-74.182598,40.69697],[-74.182559,40.696936],[-74.1825,40.696895]]}},{"type":"Feature","properties":{"agency":"EWR AirTrain","color":"#C81858","description":"AirTrain Newark","route":"AirTrain","routeId":"AIRTRAIN","shapeId":"osm-way-831874502"},"geometry":{"type":"LineString","coordinates":[[-74.190434,40.703732],[-74.190196,40.704133],[-74.190018,40.704433]]}},{"type":"Feature","properties":{"agency":"EWR AirTrain","color":"#C81858","description":"AirTrain Newark","route":"AirTrain","routeId":"AIRTRAIN","shapeId":"osm-way-831874503"},"geometry":{"type":"LineString","coordinates":[[-74.190525,40.703481],[-74.190737,40.703126]]}},{"type":"Feature","properties":{"agency":"EWR AirTrain","color":"#C81858","description":"AirTrain Newark","route":"AirTrain","routeId":"AIRTRAIN","shapeId":"osm-way-831874504"},"geometry":{"type":"LineString","coordinates":[[-74.190295,40.703685],[-74.190058,40.704083],[-74.189879,40.704385]]}},{"type":"Feature","properties":{"agency":"EWR AirTrain","color":"#C81858","description":"AirTrain Newark","route":"AirTrain","routeId":"AIRTRAIN","shapeId":"osm-way-831874505"},"geometry":{"type":"LineString","coordinates":[[-74.190598,40.703277],[-74.190592,40.703287]]}},{"type":"Feature","properties":{"agency":"EWR AirTrain","color":"#C81858","description":"AirTrain Newark","route":"AirTrain","routeId":"AIRTRAIN","shapeId":"osm-way-1123956017"},"geometry":{"type":"LineString","coordinates":[[-74.190675,40.68763],[-74.190675,40.687665],[-74.190674,40.687702],[-74.190675,40.687736],[-74.19068,40.687776],[-74.190684,40.687808],[-74.190696,40.687887],[-74.190699,40.687924],[-74.1907,40.687958],[-74.1907,40.687995],[-74.190699,40.688034],[-74.190698,40.688069],[-74.190695,40.688107],[-74.190682,40.688288],[-74.190678,40.68834],[-74.190671,40.688388],[-74.190664,40.688434],[-74.190656,40.688484],[-74.190644,40.688531],[-74.190631,40.688572],[-74.190613,40.688618],[-74.190594,40.688661],[-74.190574,40.6887],[-74.190551,40.688742],[-74.190523,40.688788],[-74.190493,40.688831],[-74.190459,40.688874],[-74.190422,40.688915],[-74.190381,40.688957],[-74.190338,40.688998],[-74.190295,40.689037],[-74.190245,40.689074],[-74.190196,40.689108],[-74.190141,40.689143],[-74.190082,40.689177],[-74.190027,40.689206],[-74.189971,40.689233],[-74.189917,40.689255],[-74.189856,40.689278],[-74.189788,40.6893],[-74.189725,40.689318],[-74.189661,40.689334],[-74.189595,40.689347],[-74.189531,40.689358],[-74.189452,40.689368],[-74.188454,40.689495],[-74.188406,40.689501]]}},{"type":"Feature","properties":{"agency":"EWR AirTrain","color":"#C81858","description":"AirTrain Newark","route":"AirTrain","routeId":"AIRTRAIN","shapeId":"osm-way-1123956018"},"geometry":{"type":"LineString","coordinates":[[-74.18229,40.687132],[-74.182246,40.687129],[-74.181906,40.687127],[-74.181565,40.687125],[-74.181521,40.687127]]}},{"type":"Feature","properties":{"agency":"EWR AirTrain","color":"#C81858","description":"AirTrain Newark","route":"AirTrain","routeId":"AIRTRAIN","shapeId":"osm-way-1123956021"},"geometry":{"type":"LineString","coordinates":[[-74.19082,40.687636],[-74.190818,40.687679],[-74.190814,40.687719],[-74.190806,40.687756],[-74.190795,40.687797],[-74.190767,40.687897],[-74.190757,40.687935],[-74.190751,40.687968],[-74.190746,40.688003],[-74.190742,40.688045],[-74.190725,40.688289],[-74.19072,40.688344],[-74.190715,40.688395],[-74.190708,40.688443],[-74.190698,40.688496],[-74.190684,40.688548],[-74.190667,40.688599],[-74.190649,40.688643],[-74.190631,40.688684],[-74.190605,40.688732],[-74.190576,40.688782],[-74.190543,40.68883],[-74.190506,40.688879],[-74.190469,40.688924],[-74.190427,40.688967],[-74.190382,40.68901],[-74.190341,40.689046],[-74.190284,40.689092],[-74.190226,40.689133],[-74.190156,40.689177],[-74.190084,40.689217],[-74.190018,40.689248],[-74.189947,40.689279],[-74.189872,40.689309],[-74.189805,40.68933],[-74.189728,40.689352],[-74.189654,40.689369],[-74.189588,40.689381],[-74.189513,40.689392],[-74.189441,40.689403],[-74.188173,40.689564],[-74.188096,40.689574],[-74.188031,40.689586],[-74.187986,40.689599],[-74.187913,40.689621],[-74.187869,40.689635],[-74.187826,40.689646],[-74.187785,40.689652],[-74.187749,40.689656]]}},{"type":"Feature","properties":{"agency":"EWR AirTrain","color":"#C81858","description":"AirTrain Newark","route":"AirTrain","routeId":"AIRTRAIN","shapeId":"osm-way-1123956022"},"geometry":{"type":"LineString","coordinates":[[-74.18087,40.687362],[-74.18096,40.687339],[-74.181046,40.687319],[-74.181124,40.687301]]}},{"type":"Feature","properties":{"agency":"EWR AirTrain","color":"#C81858","description":"AirTrain Newark","route":"AirTrain","routeId":"AIRTRAIN","shapeId":"osm-way-1123956023"},"geometry":{"type":"LineString","coordinates":[[-74.181521,40.687127],[-74.181513,40.687127],[-74.181464,40.687135],[-74.181414,40.68715],[-74.181361,40.687169],[-74.181311,40.687195],[-74.181247,40.687228]]}},{"type":"Feature","properties":{"agency":"EWR AirTrain","color":"#C81858","description":"AirTrain Newark","route":"AirTrain","routeId":"AIRTRAIN","shapeId":"osm-way-1123956024"},"geometry":{"type":"LineString","coordinates":[[-74.181247,40.687228],[-74.181204,40.687247],[-74.18116,40.687259],[-74.181113,40.687269],[-74.181033,40.687287],[-74.180946,40.687308],[-74.180857,40.687331]]}},{"type":"Feature","properties":{"agency":"EWR AirTrain","color":"#C81858","description":"AirTrain Newark","route":"AirTrain","routeId":"AIRTRAIN","shapeId":"osm-way-1123956026"},"geometry":{"type":"LineString","coordinates":[[-74.177632,40.689461],[-74.177676,40.689413],[-74.177724,40.689357],[-74.177785,40.689287],[-74.177851,40.689216],[-74.177918,40.689145],[-74.177993,40.689065],[-74.178067,40.688992],[-74.178149,40.688913],[-74.178232,40.688838],[-74.178314,40.688765],[-74.178405,40.68869],[-74.178488,40.688623],[-74.178583,40.688549],[-74.178667,40.688484],[-74.178763,40.688411],[-74.178875,40.688331],[-74.178985,40.688255],[-74.179088,40.68819],[-74.179173,40.688136],[-74.17927,40.688077],[-74.179377,40.688014],[-74.179472,40.68796],[-74.179564,40.68791],[-74.179675,40.68785],[-74.179771,40.687801],[-74.17987,40.687752],[-74.179976,40.687702],[-74.180081,40.687654],[-74.180189,40.687605],[-74.180291,40.687562],[-74.18039,40.687524],[-74.180485,40.687488],[-74.180573,40.687455],[-74.180666,40.687424],[-74.180767,40.687393],[-74.18087,40.687362]]}},{"type":"Feature","properties":{"agency":"EWR AirTrain","color":"#C81858","description":"AirTrain Newark","route":"AirTrain","routeId":"AIRTRAIN","shapeId":"osm-way-1123956027"},"geometry":{"type":"LineString","coordinates":[[-74.180857,40.687331],[-74.180751,40.687363],[-74.180649,40.687394],[-74.180555,40.687425],[-74.180466,40.687458],[-74.18037,40.687494],[-74.180271,40.687533],[-74.180168,40.687577],[-74.180059,40.687626],[-74.179953,40.687674],[-74.179847,40.687724],[-74.179746,40.687774],[-74.179651,40.687824],[-74.179539,40.687883],[-74.179447,40.687933],[-74.179351,40.687988],[-74.179244,40.688052],[-74.179146,40.688111],[-74.17906,40.688165],[-74.178957,40.688231],[-74.178846,40.688307],[-74.178733,40.688388],[-74.178636,40.688461],[-74.178552,40.688526],[-74.178456,40.688601],[-74.178373,40.688668],[-74.178282,40.688743],[-74.178199,40.688817],[-74.178116,40.688893],[-74.178033,40.688972],[-74.177959,40.689045],[-74.177882,40.689126],[-74.177816,40.689197],[-74.17775,40.689269],[-74.177688,40.689339],[-74.17764,40.689395],[-74.177598,40.689445]]}},{"type":"Feature","properties":{"agency":"EWR AirTrain","color":"#C81858","description":"AirTrain Newark","route":"AirTrain","routeId":"AIRTRAIN","shapeId":"osm-way-1123956028"},"geometry":{"type":"LineString","coordinates":[[-74.177508,40.689615],[-74.177566,40.689543],[-74.177632,40.689461]]}},{"type":"Feature","properties":{"agency":"EWR AirTrain","color":"#C81858","description":"AirTrain Newark","route":"AirTrain","routeId":"AIRTRAIN","shapeId":"osm-way-1123956029"},"geometry":{"type":"LineString","coordinates":[[-74.177598,40.689445],[-74.17753,40.689527],[-74.17747,40.689602],[-74.177413,40.689672],[-74.177364,40.689735],[-74.177312,40.689802],[-74.177258,40.689872],[-74.177207,40.689939],[-74.177157,40.690006],[-74.177109,40.690071],[-74.177059,40.690143],[-74.177011,40.690213],[-74.176964,40.690286],[-74.176947,40.690308],[-74.176925,40.690331],[-74.176911,40.690343]]}},{"type":"Feature","properties":{"agency":"EWR AirTrain","color":"#C81858","description":"AirTrain Newark","route":"AirTrain","routeId":"AIRTRAIN","shapeId":"osm-way-1123956030"},"geometry":{"type":"LineString","coordinates":[[-74.177008,40.690289],[-74.177048,40.690228],[-74.177096,40.690157],[-74.177146,40.690086],[-74.177193,40.690021],[-74.177243,40.689955],[-74.177291,40.689892]]}},{"type":"Feature","properties":{"agency":"EWR AirTrain","color":"#C81858","description":"AirTrain Newark","route":"AirTrain","routeId":"AIRTRAIN","shapeId":"osm-way-1123956031"},"geometry":{"type":"LineString","coordinates":[[-74.177291,40.689892],[-74.177294,40.689888],[-74.177348,40.689818],[-74.1774,40.689751],[-74.177449,40.689688],[-74.177506,40.689618],[-74.177508,40.689615]]}},{"type":"Feature","properties":{"agency":"EWR AirTrain","color":"#C81858","description":"AirTrain Newark","route":"AirTrain","routeId":"AIRTRAIN","shapeId":"osm-way-1123956032"},"geometry":{"type":"LineString","coordinates":[[-74.176911,40.690343],[-74.176904,40.690348],[-74.176819,40.690407],[-74.176785,40.690433],[-74.176756,40.690462],[-74.176732,40.690489]]}},{"type":"Feature","properties":{"agency":"EWR AirTrain","color":"#C81858","description":"AirTrain Newark","route":"AirTrain","routeId":"AIRTRAIN","shapeId":"osm-way-1123956033"},"geometry":{"type":"LineString","coordinates":[[-74.176852,40.690536],[-74.177001,40.6903],[-74.177008,40.690289]]}},{"type":"Feature","properties":{"agency":"EWR AirTrain","color":"#C81858","description":"AirTrain Newark","route":"AirTrain","routeId":"AIRTRAIN","shapeId":"osm-way-1123956034"},"geometry":{"type":"LineString","coordinates":[[-74.176563,40.691035],[-74.176591,40.690979],[-74.176699,40.690793],[-74.176807,40.690606],[-74.176852,40.690536]]}},{"type":"Feature","properties":{"agency":"EWR AirTrain","color":"#C81858","description":"AirTrain Newark","route":"AirTrain","routeId":"AIRTRAIN","shapeId":"osm-way-1123956035"},"geometry":{"type":"LineString","coordinates":[[-74.176732,40.690489],[-74.176725,40.690498],[-74.176701,40.690533],[-74.176678,40.690571],[-74.176576,40.690757],[-74.176463,40.690962],[-74.176445,40.691004]]}},{"type":"Feature","properties":{"agency":"EWR AirTrain","color":"#C81858","description":"AirTrain Newark","route":"AirTrain","routeId":"AIRTRAIN","shapeId":"osm-way-1123956036"},"geometry":{"type":"LineString","coordinates":[[-74.176445,40.691297],[-74.176449,40.69129],[-74.176563,40.691035]]}},{"type":"Feature","properties":{"agency":"EWR AirTrain","color":"#C81858","description":"AirTrain Newark","route":"AirTrain","routeId":"AIRTRAIN","shapeId":"osm-way-1123956037"},"geometry":{"type":"LineString","coordinates":[[-74.176445,40.691004],[-74.176431,40.691041],[-74.176427,40.691073],[-74.176424,40.691104],[-74.176425,40.691142],[-74.176426,40.691176],[-74.176427,40.691192]]}},{"type":"Feature","properties":{"agency":"EWR AirTrain","color":"#C81858","description":"AirTrain Newark","route":"AirTrain","routeId":"AIRTRAIN","shapeId":"osm-way-1123956038"},"geometry":{"type":"LineString","coordinates":[[-74.176369,40.691462],[-74.176445,40.691297]]}},{"type":"Feature","properties":{"agency":"EWR AirTrain","color":"#C81858","description":"AirTrain Newark","route":"AirTrain","routeId":"AIRTRAIN","shapeId":"osm-way-1123956039"},"geometry":{"type":"LineString","coordinates":[[-74.176427,40.691192],[-74.176424,40.691224],[-74.176417,40.691254],[-74.176407,40.691279],[-74.176328,40.691451]]}},{"type":"Feature","properties":{"agency":"EWR AirTrain","color":"#C81858","description":"AirTrain Newark","route":"AirTrain","routeId":"AIRTRAIN","shapeId":"osm-way-1123956040"},"geometry":{"type":"LineString","coordinates":[[-74.176209,40.694698],[-74.176183,40.694636],[-74.176158,40.694568],[-74.176132,40.694493],[-74.176107,40.694415],[-74.176087,40.694345],[-74.176063,40.694256],[-74.176047,40.694181],[-74.17603,40.694102],[-74.176017,40.694028],[-74.176004,40.693952],[-74.175993,40.693878],[-74.175981,40.693798],[-74.175972,40.693715],[-74.175964,40.69363],[-74.175958,40.693543],[-74.175954,40.693447],[-74.175952,40.693352],[-74.175951,40.69325],[-74.175951,40.693158],[-74.175954,40.69308],[-74.17596,40.692988],[-74.17597,40.692892],[-74.17598,40.692786],[-74.175993,40.692692],[-74.176007,40.692597],[-74.176024,40.692501],[-74.17604,40.692417],[-74.176061,40.692327],[-74.176081,40.692242],[-74.176106,40.692149],[-74.176132,40.692061],[-74.176159,40.691973],[-74.17619,40.691884],[-74.176232,40.691776],[-74.176274,40.691673],[-74.176308,40.691594],[-74.176369,40.691462]]}},{"type":"Feature","properties":{"agency":"EWR AirTrain","color":"#C81858","description":"AirTrain Newark","route":"AirTrain","routeId":"AIRTRAIN","shapeId":"osm-way-1123956041"},"geometry":{"type":"LineString","coordinates":[[-74.176328,40.691451],[-74.176267,40.691583],[-74.176232,40.691663],[-74.176192,40.691767],[-74.17615,40.691876],[-74.17612,40.691966],[-74.176092,40.692054],[-74.176066,40.692142],[-74.176041,40.692236],[-74.176021,40.692322],[-74.176,40.692412],[-74.175984,40.692497],[-74.175967,40.692593],[-74.175952,40.692688],[-74.175939,40.692783],[-74.175929,40.69289],[-74.175919,40.692986],[-74.175913,40.693079],[-74.17591,40.693158],[-74.17591,40.69325],[-74.175911,40.693352],[-74.175913,40.693448],[-74.175917,40.693545],[-74.175924,40.693632],[-74.175931,40.693717],[-74.175941,40.693801],[-74.175952,40.693882],[-74.175962,40.693956],[-74.175976,40.694032],[-74.175989,40.694106],[-74.176006,40.694186],[-74.176022,40.694262],[-74.176046,40.694352],[-74.176067,40.694423],[-74.176092,40.6945],[-74.176116,40.694574],[-74.176141,40.694644],[-74.176167,40.694709]]}},{"type":"Feature","properties":{"agency":"EWR AirTrain","color":"#C81858","description":"AirTrain Newark","route":"AirTrain","routeId":"AIRTRAIN","shapeId":"osm-way-1123956042"},"geometry":{"type":"LineString","coordinates":[[-74.176304,40.694884],[-74.176299,40.694877],[-74.176271,40.694826],[-74.176239,40.694765],[-74.176214,40.694708],[-74.176209,40.694698]]}},{"type":"Feature","properties":{"agency":"EWR AirTrain","color":"#C81858","description":"AirTrain Newark","route":"AirTrain","routeId":"AIRTRAIN","shapeId":"osm-way-1123956043"},"geometry":{"type":"LineString","coordinates":[[-74.176525,40.695198],[-74.176517,40.695188],[-74.176476,40.695138],[-74.17644,40.695091],[-74.176401,40.695039],[-74.176365,40.694985],[-74.176333,40.694933],[-74.176304,40.694884]]}},{"type":"Feature","properties":{"agency":"EWR AirTrain","color":"#C81858","description":"AirTrain Newark","route":"AirTrain","routeId":"AIRTRAIN","shapeId":"osm-way-1123956044"},"geometry":{"type":"LineString","coordinates":[[-74.176936,40.695587],[-74.176885,40.695548],[-74.176837,40.69551],[-74.176786,40.695466],[-74.176736,40.695423],[-74.17669,40.695378],[-74.176643,40.69533],[-74.1766,40.695284],[-74.176556,40.695235],[-74.176525,40.695198]]}},{"type":"Feature","properties":{"agency":"EWR AirTrain","color":"#C81858","description":"AirTrain Newark","route":"AirTrain","routeId":"AIRTRAIN","shapeId":"osm-way-1123956045"},"geometry":{"type":"LineString","coordinates":[[-74.176167,40.694709],[-74.176169,40.694714],[-74.176199,40.694776],[-74.176231,40.694838],[-74.17626,40.69489],[-74.176294,40.694947],[-74.176327,40.694999],[-74.176363,40.695054],[-74.176403,40.695108],[-74.176439,40.695155],[-74.17648,40.695206],[-74.17652,40.695253],[-74.176564,40.695303],[-74.176609,40.695349],[-74.176656,40.695397],[-74.176703,40.695444],[-74.176754,40.695488],[-74.176806,40.695532],[-74.176862,40.69558],[-74.176927,40.695637],[-74.176961,40.695668],[-74.176993,40.695702],[-74.177019,40.695737],[-74.177039,40.695772],[-74.177062,40.695808],[-74.177088,40.695838],[-74.177127,40.69587],[-74.177163,40.695896],[-74.177241,40.695939],[-74.177475,40.696045],[-74.177705,40.69614],[-74.177782,40.696168],[-74.17784,40.696186],[-74.177908,40.696202],[-74.177967,40.696207],[-74.178025,40.696207],[-74.178084,40.6962],[-74.178122,40.696197]]}},{"type":"Feature","properties":{"agency":"EWR AirTrain","color":"#C81858","description":"AirTrain Newark","route":"AirTrain","routeId":"AIRTRAIN","shapeId":"osm-way-1123956046"},"geometry":{"type":"LineString","coordinates":[[-74.178303,40.696184],[-74.178248,40.696173],[-74.178167,40.696154],[-74.178076,40.696131],[-74.177977,40.696102],[-74.177886,40.696076],[-74.177721,40.69602],[-74.17756,40.695954],[-74.177459,40.695906],[-74.177329,40.695841],[-74.17725,40.695797],[-74.17718,40.695754],[-74.177117,40.695714],[-74.177055,40.695673],[-74.177002,40.695638],[-74.176936,40.695587]]}},{"type":"Feature","properties":{"agency":"EWR AirTrain","color":"#C81858","description":"AirTrain Newark","route":"AirTrain","routeId":"AIRTRAIN","shapeId":"osm-way-1123956047"},"geometry":{"type":"LineString","coordinates":[[-74.17856,40.696225],[-74.17847,40.696212],[-74.178358,40.696194],[-74.178303,40.696184]]}},{"type":"Feature","properties":{"agency":"EWR AirTrain","color":"#C81858","description":"AirTrain Newark","route":"AirTrain","routeId":"AIRTRAIN","shapeId":"osm-way-1123956048"},"geometry":{"type":"LineString","coordinates":[[-74.178122,40.696197],[-74.178138,40.696196],[-74.178193,40.696198],[-74.178238,40.696204],[-74.178349,40.696225],[-74.178461,40.696243],[-74.178555,40.696256]]}},{"type":"Feature","properties":{"agency":"EWR AirTrain","color":"#C81858","description":"AirTrain Newark","route":"AirTrain","routeId":"AIRTRAIN","shapeId":"osm-way-1123956049"},"geometry":{"type":"LineString","coordinates":[[-74.183925,40.687791],[-74.183871,40.687754],[-74.183796,40.687705],[-74.183715,40.687658],[-74.18362,40.687606],[-74.183529,40.68756],[-74.183432,40.687516],[-74.183325,40.68747],[-74.183214,40.687425],[-74.183105,40.687386],[-74.182994,40.68735],[-74.182886,40.687318],[-74.182774,40.68729],[-74.182658,40.687266],[-74.182604,40.687252],[-74.182568,40.687237]]}},{"type":"Feature","properties":{"agency":"EWR AirTrain","color":"#C81858","description":"AirTrain Newark","route":"AirTrain","routeId":"AIRTRAIN","shapeId":"osm-way-1123956050"},"geometry":{"type":"LineString","coordinates":[[-74.181124,40.687301],[-74.181213,40.687285],[-74.181302,40.687272],[-74.181413,40.687256],[-74.181514,40.687243],[-74.1816,40.687237],[-74.181685,40.687234],[-74.181904,40.687236],[-74.182115,40.687238],[-74.182205,40.687242],[-74.18232,40.687252],[-74.182436,40.687267],[-74.182539,40.687281],[-74.182648,40.687298],[-74.182705,40.68731]]}},{"type":"Feature","properties":{"agency":"EWR AirTrain","color":"#C81858","description":"AirTrain Newark","route":"AirTrain","routeId":"AIRTRAIN","shapeId":"osm-way-1123956051"},"geometry":{"type":"LineString","coordinates":[[-74.183703,40.687693],[-74.183769,40.687731],[-74.183842,40.687779],[-74.183896,40.687818]]}},{"type":"Feature","properties":{"agency":"EWR AirTrain","color":"#C81858","description":"AirTrain Newark","route":"AirTrain","routeId":"AIRTRAIN","shapeId":"osm-way-1123956052"},"geometry":{"type":"LineString","coordinates":[[-74.182568,40.687237],[-74.18249,40.687193],[-74.182441,40.687171],[-74.182391,40.687153],[-74.182342,40.68714],[-74.182295,40.687132],[-74.18229,40.687132]]}},{"type":"Feature","properties":{"agency":"EWR AirTrain","color":"#C81858","description":"AirTrain Newark","route":"AirTrain","routeId":"AIRTRAIN","shapeId":"osm-way-1123956053"},"geometry":{"type":"LineString","coordinates":[[-74.182705,40.68731],[-74.182762,40.687322],[-74.182871,40.687349],[-74.182977,40.687381],[-74.183087,40.687417],[-74.183195,40.687455],[-74.183304,40.6875],[-74.18341,40.687545],[-74.183505,40.687588],[-74.183595,40.687634],[-74.183689,40.687685],[-74.183703,40.687693]]}},{"type":"Feature","properties":{"agency":"EWR AirTrain","color":"#C81858","description":"AirTrain Newark","route":"AirTrain","routeId":"AIRTRAIN","shapeId":"osm-way-1123956054"},"geometry":{"type":"LineString","coordinates":[[-74.187026,40.689747],[-74.186964,40.689756],[-74.186909,40.689761],[-74.186853,40.689763],[-74.186718,40.689764],[-74.186659,40.689765],[-74.186602,40.689767],[-74.186543,40.689772],[-74.18648,40.689777],[-74.186384,40.689788],[-74.186284,40.689793],[-74.186181,40.689794],[-74.186081,40.689789],[-74.185976,40.689778],[-74.185872,40.689762],[-74.185764,40.689738],[-74.185665,40.68971],[-74.185566,40.689675],[-74.185475,40.689637],[-74.185385,40.689593],[-74.185295,40.689541],[-74.185217,40.689489],[-74.185143,40.689433],[-74.185069,40.689364],[-74.185009,40.689299],[-74.184955,40.689232],[-74.184908,40.689164],[-74.184869,40.689096],[-74.184835,40.689026],[-74.184808,40.688961],[-74.18476,40.688841],[-74.184719,40.688747],[-74.184677,40.688665],[-74.184629,40.688578],[-74.184581,40.688501],[-74.184534,40.68843],[-74.18449,40.688371]]}},{"type":"Feature","properties":{"agency":"EWR AirTrain","color":"#C81858","description":"AirTrain Newark","route":"AirTrain","routeId":"AIRTRAIN","shapeId":"osm-way-1123956055"},"geometry":{"type":"LineString","coordinates":[[-74.187004,40.68964],[-74.186974,40.689644],[-74.186922,40.689652],[-74.186872,40.689661],[-74.186818,40.689673],[-74.186662,40.689712],[-74.186595,40.689726],[-74.186528,40.689738],[-74.186454,40.689749],[-74.186379,40.689755],[-74.186282,40.68976],[-74.186182,40.689761],[-74.186085,40.689756],[-74.185984,40.689746],[-74.185882,40.689729],[-74.185778,40.689707],[-74.185682,40.68968],[-74.185586,40.689646],[-74.185497,40.689608],[-74.18541,40.689566],[-74.185323,40.689515],[-74.185247,40.689465],[-74.185176,40.68941],[-74.185103,40.689344],[-74.185046,40.689281],[-74.184993,40.689216],[-74.184948,40.689149],[-74.18491,40.689084],[-74.184876,40.689015],[-74.184849,40.688951],[-74.184802,40.688831],[-74.18476,40.688736],[-74.184717,40.688652],[-74.184669,40.688565],[-74.184621,40.688486],[-74.184572,40.688415],[-74.184517,40.688339],[-74.184456,40.688266],[-74.184402,40.688204],[-74.184393,40.688193],[-74.184328,40.688125],[-74.184266,40.688065],[-74.184197,40.688003],[-74.184128,40.687942],[-74.184068,40.687893],[-74.184004,40.687846],[-74.183925,40.687791]]}},{"type":"Feature","properties":{"agency":"EWR AirTrain","color":"#C81858","description":"AirTrain Newark","route":"AirTrain","routeId":"AIRTRAIN","shapeId":"osm-way-1123956056"},"geometry":{"type":"LineString","coordinates":[[-74.187724,40.689549],[-74.187367,40.689594],[-74.187004,40.68964]]}},{"type":"Feature","properties":{"agency":"EWR AirTrain","color":"#C81858","description":"AirTrain Newark","route":"AirTrain","routeId":"AIRTRAIN","shapeId":"osm-way-1123956057"},"geometry":{"type":"LineString","coordinates":[[-74.187749,40.689656],[-74.187388,40.689702],[-74.187026,40.689747]]}},{"type":"Feature","properties":{"agency":"EWR AirTrain","color":"#C81858","description":"AirTrain Newark","route":"AirTrain","routeId":"AIRTRAIN","shapeId":"osm-way-1123956058"},"geometry":{"type":"LineString","coordinates":[[-74.190815,40.686406],[-74.190792,40.686687],[-74.19079,40.686717],[-74.190785,40.686751],[-74.190779,40.68678],[-74.190772,40.686811],[-74.190742,40.686915],[-74.190732,40.686955],[-74.190724,40.686992],[-74.190718,40.687033],[-74.190715,40.687073]]}},{"type":"Feature","properties":{"agency":"EWR AirTrain","color":"#C81858","description":"AirTrain Newark","route":"AirTrain","routeId":"AIRTRAIN","shapeId":"osm-way-1123956059"},"geometry":{"type":"LineString","coordinates":[[-74.190858,40.68641],[-74.190838,40.686691],[-74.190836,40.686741],[-74.190838,40.686773],[-74.190842,40.68681],[-74.190862,40.686952],[-74.190864,40.686992],[-74.190863,40.687034],[-74.19086,40.687079]]}},{"type":"Feature","properties":{"agency":"EWR AirTrain","color":"#C81858","description":"AirTrain Newark","route":"AirTrain","routeId":"AIRTRAIN","shapeId":"osm-way-1123956060"},"geometry":{"type":"LineString","coordinates":[[-74.19086,40.687079],[-74.190838,40.687356],[-74.19082,40.687636]]}},{"type":"Feature","properties":{"agency":"EWR AirTrain","color":"#C81858","description":"AirTrain Newark","route":"AirTrain","routeId":"AIRTRAIN","shapeId":"osm-way-1123956061"},"geometry":{"type":"LineString","coordinates":[[-74.190715,40.687073],[-74.190698,40.687351],[-74.190679,40.687578],[-74.190675,40.68763]]}},{"type":"Feature","properties":{"agency":"EWR AirTrain","color":"#C81858","description":"AirTrain Newark","route":"AirTrain","routeId":"AIRTRAIN","shapeId":"osm-way-1123956062"},"geometry":{"type":"LineString","coordinates":[[-74.181946,40.696532],[-74.181933,40.696523],[-74.181862,40.696482],[-74.181799,40.696452],[-74.181709,40.696415],[-74.181659,40.696392],[-74.181606,40.696363],[-74.181501,40.696297],[-74.181418,40.696249],[-74.181344,40.696214],[-74.181276,40.696185],[-74.181201,40.696156],[-74.181113,40.696127],[-74.181029,40.696104],[-74.180948,40.696088],[-74.180853,40.696072],[-74.180764,40.696061],[-74.180664,40.696054],[-74.180572,40.696053],[-74.180478,40.696055],[-74.180387,40.696062],[-74.180291,40.696076],[-74.1802,40.696093],[-74.180108,40.696113],[-74.180005,40.696138],[-74.179851,40.696175],[-74.17976,40.696193],[-74.179649,40.696213],[-74.179543,40.696227],[-74.179432,40.696239],[-74.179323,40.696247],[-74.179207,40.696253],[-74.179097,40.696256],[-74.178989,40.696256],[-74.178887,40.696253],[-74.178786,40.696247],[-74.178691,40.696239],[-74.178586,40.696228],[-74.17856,40.696225]]}},{"type":"Feature","properties":{"agency":"EWR AirTrain","color":"#C81858","description":"AirTrain Newark","route":"AirTrain","routeId":"AIRTRAIN","shapeId":"osm-way-1123956063"},"geometry":{"type":"LineString","coordinates":[[-74.178555,40.696256],[-74.178579,40.69626],[-74.178686,40.696271],[-74.178782,40.696279],[-74.178885,40.696285],[-74.178988,40.696288],[-74.179098,40.696288],[-74.179209,40.696285],[-74.179327,40.696279],[-74.179437,40.69627],[-74.179549,40.696258],[-74.179658,40.696244],[-74.17977,40.696224],[-74.179863,40.696206],[-74.180018,40.696168],[-74.18012,40.696144],[-74.180211,40.696124],[-74.1803,40.696107],[-74.180335,40.696102],[-74.180393,40.696094],[-74.18048,40.696087],[-74.180573,40.696085],[-74.180662,40.696086],[-74.180758,40.696093],[-74.180846,40.696103],[-74.180938,40.696119],[-74.181017,40.696135],[-74.181098,40.696157],[-74.181183,40.696185],[-74.181256,40.696213],[-74.181322,40.696241],[-74.181394,40.696275],[-74.181474,40.696322],[-74.181573,40.696383],[-74.181623,40.696418],[-74.181669,40.696458],[-74.181719,40.696511],[-74.181769,40.696555],[-74.18184,40.696607],[-74.181851,40.696616]]}},{"type":"Feature","properties":{"agency":"EWR AirTrain","color":"#C81858","description":"AirTrain Newark","route":"AirTrain","routeId":"AIRTRAIN","shapeId":"osm-way-1123956064"},"geometry":{"type":"LineString","coordinates":[[-74.1825,40.696895],[-74.182221,40.696712],[-74.181946,40.696532]]}},{"type":"Feature","properties":{"agency":"EWR AirTrain","color":"#C81858","description":"AirTrain Newark","route":"AirTrain","routeId":"AIRTRAIN","shapeId":"osm-way-1123956065"},"geometry":{"type":"LineString","coordinates":[[-74.181851,40.696616],[-74.182129,40.696796],[-74.182406,40.696977]]}},{"type":"Feature","properties":{"agency":"EWR AirTrain","color":"#C81858","description":"AirTrain Newark","route":"AirTrain","routeId":"AIRTRAIN","shapeId":"osm-way-1123956066"},"geometry":{"type":"LineString","coordinates":[[-74.190737,40.703126],[-74.191164,40.70241],[-74.191211,40.702337],[-74.191265,40.702258],[-74.19131,40.702196],[-74.191357,40.702132],[-74.191435,40.702032]]}},{"type":"Feature","properties":{"agency":"EWR AirTrain","color":"#C81858","description":"AirTrain Newark","route":"AirTrain","routeId":"AIRTRAIN","shapeId":"osm-way-1123956067"},"geometry":{"type":"LineString","coordinates":[[-74.191404,40.702013],[-74.191322,40.702117],[-74.191275,40.702181],[-74.191229,40.702244],[-74.191176,40.702323],[-74.191128,40.702397],[-74.190598,40.703277]]}},{"type":"Feature","properties":{"agency":"EWR AirTrain","color":"#C81858","description":"AirTrain Newark","route":"AirTrain","routeId":"AIRTRAIN","shapeId":"osm-way-1123956068"},"geometry":{"type":"LineString","coordinates":[[-74.191647,40.701692],[-74.191603,40.701756],[-74.191558,40.701816],[-74.191404,40.702013]]}},{"type":"Feature","properties":{"agency":"EWR AirTrain","color":"#C81858","description":"AirTrain Newark","route":"AirTrain","routeId":"AIRTRAIN","shapeId":"osm-way-1123956069"},"geometry":{"type":"LineString","coordinates":[[-74.191435,40.702032],[-74.191593,40.701831],[-74.191639,40.701771],[-74.191682,40.701705]]}},{"type":"Feature","properties":{"agency":"EWR AirTrain","color":"#C81858","description":"AirTrain Newark","route":"AirTrain","routeId":"AIRTRAIN","shapeId":"osm-way-1123956070"},"geometry":{"type":"LineString","coordinates":[[-74.190592,40.703287],[-74.190469,40.7035],[-74.190448,40.703528],[-74.190429,40.703548],[-74.190406,40.703568],[-74.190363,40.703604],[-74.19033,40.703637],[-74.190308,40.703665],[-74.190295,40.703685]]}},{"type":"Feature","properties":{"agency":"EWR AirTrain","color":"#C81858","description":"AirTrain Newark","route":"AirTrain","routeId":"AIRTRAIN","shapeId":"osm-way-1123956071"},"geometry":{"type":"LineString","coordinates":[[-74.190525,40.703481],[-74.190502,40.703518],[-74.190488,40.703552],[-74.19048,40.703588],[-74.190474,40.703626],[-74.190468,40.703657],[-74.190459,40.703684],[-74.190448,40.70371],[-74.190434,40.703732]]}},{"type":"Feature","properties":{"agency":"EWR AirTrain","color":"#C81858","description":"AirTrain Newark","route":"AirTrain","routeId":"AIRTRAIN","shapeId":"osm-way-1123956072"},"geometry":{"type":"LineString","coordinates":[[-74.190018,40.704433],[-74.189765,40.704857]]}},{"type":"Feature","properties":{"agency":"EWR AirTrain","color":"#C81858","description":"AirTrain Newark","route":"AirTrain","routeId":"AIRTRAIN","shapeId":"osm-way-1123956073"},"geometry":{"type":"LineString","coordinates":[[-74.189879,40.704385],[-74.189622,40.704808]]}},{"type":"Feature","properties":{"agency":"EWR AirTrain","color":"#C81858","description":"AirTrain Newark","route":"AirTrain","routeId":"AIRTRAIN","shapeId":"osm-way-1425096312"},"geometry":{"type":"LineString","coordinates":[[-74.183896,40.687818],[-74.183974,40.687871],[-74.184037,40.687916],[-74.184096,40.687964],[-74.184164,40.688024],[-74.184232,40.688086],[-74.184294,40.688145],[-74.184357,40.688212],[-74.18442,40.688283],[-74.184479,40.688356],[-74.18449,40.688371]]}},{"type":"Feature","properties":{"agency":"EWR AirTrain","color":"#C81858","description":"AirTrain Newark","route":"AirTrain","routeId":"AIRTRAIN","shapeId":"osm-way-1425096314"},"geometry":{"type":"LineString","coordinates":[[-74.188406,40.689501],[-74.188159,40.689533],[-74.188101,40.68954],[-74.188061,40.689543],[-74.188016,40.689545],[-74.187976,40.689546],[-74.187902,40.689541],[-74.187851,40.689538],[-74.187807,40.689539],[-74.187724,40.689549]]}}]}
