{"type":"FeatureCollection","metadata":{"generatedAt":"2026-09-24T21:46:46.364Z","routeCount":3,"source":"Metro Memory"},"features":[{"type":"Feature","geometry":{"type":"MultiLineString","coordinates":[[[-73.828274,40.661872],[-73.829118,40.661371]],[[-73.829043,40.661274],[-73.82818,40.661787]],[[-73.829861,40.66079],[-73.829043,40.661274]],[[-73.829118,40.661371],[-73.829947,40.660876]],[[-73.822008,40.661654],[-73.822118,40.661636],[-73.822243,40.66162],[-73.822332,40.661615],[-73.822449,40.66161],[-73.822559,40.661612],[-73.822668,40.661618],[-73.822774,40.661626],[-73.823042,40.661654],[-73.823629,40.661721],[-73.824139,40.661779],[-73.824975,40.661873],[-73.826364,40.662031],[-73.827272,40.662129],[-73.827393,40.662137],[-73.827494,40.662136],[-73.827587,40.662129],[-73.827691,40.662117],[-73.827798,40.662093],[-73.8279,40.662061],[-73.828008,40.662018],[-73.82814,40.661949],[-73.828274,40.661872]],[[-73.82818,40.661787],[-73.828054,40.661863],[-73.827934,40.661923],[-73.827842,40.661962],[-73.827746,40.661992],[-73.827644,40.662012],[-73.827532,40.662026],[-73.827408,40.66203],[-73.8273,40.662023],[-73.827207,40.662015],[-73.825004,40.661763],[-73.824157,40.661666],[-73.823026,40.661544],[-73.822878,40.661527],[-73.822758,40.661519],[-73.822641,40.661515],[-73.82253,40.661518],[-73.822424,40.661527],[-73.822323,40.661542],[-73.822169,40.66157],[-73.821992,40.661609]],[[-73.829947,40.660876],[-73.830101,40.660786],[-73.830153,40.660755]],[[-73.830066,40.660665],[-73.830012,40.660697],[-73.829861,40.66079]],[[-73.821992,40.661609],[-73.82197,40.661613],[-73.820909,40.661848],[-73.820658,40.661905],[-73.820512,40.661944],[-73.820383,40.661987],[-73.820253,40.66204],[-73.819853,40.662223],[-73.819702,40.662286],[-73.819563,40.662334],[-73.819432,40.662369],[-73.819328,40.662391],[-73.819235,40.662405],[-73.819133,40.662416],[-73.819021,40.662422],[-73.818919,40.662421],[-73.818829,40.662417],[-73.818737,40.662409],[-73.818638,40.662397],[-73.818531,40.66238],[-73.818388,40.662356],[-73.815778,40.661868],[-73.814713,40.661673],[-73.814118,40.661563],[-73.813905,40.661522]],[[-73.820721,40.661936],[-73.820862,40.661905],[-73.821156,40.66184],[-73.821427,40.66178],[-73.821924,40.661672],[-73.822008,40.661654]],[[-73.814204,40.661624],[-73.814655,40.661706],[-73.81833,40.66239],[-73.818545,40.662428],[-73.818743,40.662454],[-73.818855,40.662463],[-73.818992,40.662466],[-73.819116,40.66246],[-73.819235,40.66245],[-73.819345,40.662433],[-73.819474,40.662405],[-73.819599,40.66237],[-73.81973,40.662325],[-73.819831,40.662283],[-73.819943,40.662233],[-73.82025,40.662092],[-73.820345,40.662051],[-73.820461,40.662008],[-73.820571,40.661973],[-73.820721,40.661936]],[[-73.803496,40.66092],[-73.803525,40.661103],[-73.803544,40.6612],[-73.803574,40.661284],[-73.803619,40.661353],[-73.803664,40.661412],[-73.803721,40.66147],[-73.803787,40.661522],[-73.803895,40.661588],[-73.803996,40.661631],[-73.804086,40.66166],[-73.804178,40.66168],[-73.804276,40.66169],[-73.804373,40.66169],[-73.804475,40.661683],[-73.804567,40.661667],[-73.80466,40.661643],[-73.804748,40.661615],[-73.804857,40.661572],[-73.805746,40.661198],[-73.806922,40.660703],[-73.807303,40.660542],[-73.807465,40.660485],[-73.807616,40.660441],[-73.807698,40.660424],[-73.807756,40.660414],[-73.807927,40.6604],[-73.808079,40.660406],[-73.808367,40.660443],[-73.809209,40.660594],[-73.809554,40.660657],[-73.810127,40.66076],[-73.811283,40.660969],[-73.812083,40.661114],[-73.812416,40.661177],[-73.812791,40.661267],[-73.813166,40.661377],[-73.813557,40.66149],[-73.813892,40.661567]],[[-73.813905,40.661522],[-73.813751,40.661489],[-73.81361,40.661454],[-73.813426,40.661404],[-73.813272,40.661359],[-73.813063,40.661294],[-73.812934,40.661256],[-73.812822,40.661225],[-73.812698,40.661192],[-73.812548,40.661156],[-73.812355,40.661117],[-73.810734,40.660823],[-73.810139,40.660718],[-73.809567,40.660614],[-73.809221,40.660552],[-73.808378,40.6604],[-73.808335,40.660392],[-73.808186,40.660372],[-73.808045,40.660359],[-73.807931,40.660356],[-73.807814,40.660362],[-73.807683,40.66038],[-73.807595,40.660399],[-73.807478,40.660432],[-73.807349,40.660477],[-73.80718,40.660545],[-73.806894,40.660666],[-73.805718,40.66116],[-73.805088,40.661424],[-73.80498,40.661469],[-73.804871,40.661512],[-73.804758,40.661548],[-73.80465,40.661572],[-73.80455,40.661585],[-73.804449,40.661587],[-73.804358,40.661582],[-73.804259,40.661566],[-73.804177,40.661545],[-73.8041,40.661518],[-73.80403,40.661488],[-73.803966,40.661453],[-73.803902,40.661411],[-73.803843,40.661362],[-73.803793,40.661309],[-73.803754,40.66126],[-73.803714,40.661196],[-73.803686,40.661129],[-73.803664,40.661057],[-73.803648,40.660985],[-73.803632,40.660881]],[[-73.813892,40.661567],[-73.814204,40.661624]],[[-73.803443,40.660447],[-73.803456,40.660634],[-73.803473,40.660754],[-73.803496,40.66092]],[[-73.803632,40.660881],[-73.803607,40.660711],[-73.803585,40.660456]],[[-73.803585,40.660456],[-73.803596,40.660069],[-73.803611,40.659426],[-73.803617,40.659271],[-73.80362,40.659173],[-73.803629,40.659089],[-73.803642,40.659028],[-73.803663,40.658961],[-73.8037,40.658879],[-73.803736,40.658818],[-73.803789,40.658743],[-73.803841,40.658689],[-73.803908,40.658627],[-73.803979,40.658575],[-73.804058,40.658525],[-73.80415,40.658478],[-73.804305,40.658416],[-73.805166,40.658094],[-73.8053,40.658036],[-73.805374,40.657996],[-73.805459,40.657942],[-73.805544,40.657873],[-73.805597,40.65782],[-73.805647,40.657763],[-73.805716,40.657685]],[[-73.805931,40.657356],[-73.805759,40.657553],[-73.80567,40.657651],[-73.805528,40.65777],[-73.805359,40.65788],[-73.805219,40.657947],[-73.805023,40.658023],[-73.804697,40.658144],[-73.80443,40.658245],[-73.804227,40.658322],[-73.804063,40.658391],[-73.803969,40.65844],[-73.803853,40.658514],[-73.803759,40.658589],[-73.803688,40.658668],[-73.803634,40.658739],[-73.803599,40.658787],[-73.803558,40.658856],[-73.80353,40.658918],[-73.803496,40.659037],[-73.803477,40.65916],[-73.803472,40.659306],[-73.803469,40.659435],[-73.803456,40.660074],[-73.803443,40.660447]],[[-73.805716,40.657685],[-73.806273,40.657039]],[[-73.807009,40.655183],[-73.807006,40.655345],[-73.806989,40.655534],[-73.80696,40.655691],[-73.80692,40.65585],[-73.80687,40.656009],[-73.806788,40.656205],[-73.806683,40.6564],[-73.806571,40.656578],[-73.806454,40.656735],[-73.806239,40.656995],[-73.805965,40.657312]],[[-73.805965,40.657312],[-73.805931,40.657356]],[[-73.806273,40.657039],[-73.806496,40.656774],[-73.806606,40.656628],[-73.806682,40.656512],[-73.806758,40.656386],[-73.806806,40.6563],[-73.806842,40.656226],[-73.806877,40.656148],[-73.806913,40.656064],[-73.806947,40.655973],[-73.806977,40.655882],[-73.807004,40.655778],[-73.807028,40.655677],[-73.807046,40.655578],[-73.80706,40.655478],[-73.807067,40.655377],[-73.807072,40.65518]],[[-73.807072,40.65518],[-73.807067,40.655078],[-73.807055,40.65496],[-73.807017,40.65473],[-73.806924,40.654349],[-73.806868,40.654165],[-73.806802,40.653976],[-73.806651,40.653601],[-73.806517,40.653317],[-73.806384,40.653073],[-73.80627,40.652879],[-73.806156,40.652696],[-73.805751,40.652074],[-73.805301,40.651396],[-73.805055,40.65104],[-73.804927,40.650868],[-73.804851,40.650767]],[[-73.804537,40.650446],[-73.804881,40.650897],[-73.80507,40.651158],[-73.805322,40.651523],[-73.805672,40.652059],[-73.806035,40.652607],[-73.806276,40.652994],[-73.80636,40.653142],[-73.806477,40.653361],[-73.806559,40.653535],[-73.806624,40.653692],[-73.806704,40.653885],[-73.806777,40.654085],[-73.806829,40.654247],[-73.806872,40.65439],[-73.806935,40.654651],[-73.806975,40.654845],[-73.807,40.65503],[-73.807009,40.655183]],[[-73.804851,40.650767],[-73.80475,40.650634],[-73.804318,40.650072]],[[-73.798777,40.645463],[-73.799078,40.645567],[-73.799382,40.645687],[-73.799689,40.645825],[-73.799916,40.645939],[-73.800194,40.646094],[-73.800378,40.646203],[-73.80069,40.646414],[-73.800897,40.64657],[-73.801152,40.646782],[-73.801526,40.647129],[-73.802105,40.64767],[-73.802574,40.648129],[-73.802921,40.64849],[-73.803285,40.648895],[-73.803728,40.649403],[-73.803976,40.649713],[-73.804135,40.649921],[-73.804217,40.650026],[-73.80451,40.65041]],[[-73.80451,40.65041],[-73.804537,40.650446]],[[-73.804318,40.650072],[-73.804265,40.650002],[-73.803971,40.649623],[-73.803795,40.649404],[-73.803596,40.649166],[-73.803494,40.649045],[-73.803351,40.648882],[-73.803246,40.648762],[-73.803028,40.648524],[-73.802795,40.648278],[-73.802545,40.648023],[-73.802391,40.647868],[-73.80223,40.647711],[-73.802051,40.64754],[-73.801767,40.647277],[-73.801489,40.64702],[-73.801118,40.646685],[-73.800921,40.646529],[-73.800705,40.646367],[-73.800536,40.646252],[-73.800227,40.646059],[-73.799914,40.645888],[-73.799762,40.645812],[-73.799501,40.645691],[-73.799268,40.645592],[-73.79903,40.645503],[-73.798792,40.645425]],[[-73.79783,40.645224],[-73.79817,40.645282],[-73.79841,40.645349],[-73.798777,40.645463]],[[-73.798792,40.645425],[-73.798333,40.645289],[-73.798097,40.645228],[-73.797846,40.64518]],[[-73.797846,40.64518],[-73.797506,40.645124],[-73.79716,40.645077]],[[-73.797157,40.645121],[-73.79743,40.645154],[-73.797638,40.645186],[-73.79783,40.645224]],[[-73.794477,40.645116],[-73.795332,40.645058],[-73.795886,40.645037],[-73.796359,40.645057],[-73.796715,40.645078],[-73.797157,40.645121]],[[-73.79716,40.645077],[-73.796581,40.645026],[-73.795886,40.644996],[-73.795208,40.645022],[-73.794475,40.645075]],[[-73.794475,40.645075],[-73.793693,40.645131]],[[-73.79363,40.6452],[-73.793848,40.645177],[-73.794477,40.645116]],[[-73.792363,40.645216],[-73.792129,40.645234],[-73.791902,40.645246],[-73.791702,40.645247],[-73.791519,40.645234],[-73.791375,40.645213],[-73.791244,40.645188],[-73.791116,40.645153],[-73.790986,40.645109],[-73.790874,40.645063],[-73.790758,40.645009],[-73.790659,40.644953],[-73.790565,40.644892],[-73.790442,40.6448],[-73.790335,40.644702],[-73.790239,40.644599],[-73.790081,40.644394]],[[-73.793693,40.645131],[-73.792953,40.64518],[-73.792363,40.645216]],[[-73.790081,40.644394],[-73.789667,40.643855]],[[-73.789667,40.643855],[-73.789362,40.643455],[-73.78907,40.643071],[-73.788833,40.642761]],[[-73.788833,40.642761],[-73.788639,40.642512],[-73.788578,40.642442],[-73.788546,40.64241],[-73.788514,40.642378],[-73.788438,40.642319],[-73.788364,40.64227],[-73.788262,40.642215],[-73.788174,40.642179],[-73.788075,40.642146],[-73.787962,40.642116],[-73.787561,40.642035],[-73.786603,40.641844],[-73.786471,40.641817],[-73.786341,40.641797],[-73.786244,40.641788],[-73.786126,40.641789],[-73.786045,40.641799],[-73.785953,40.641817],[-73.785884,40.641832],[-73.785793,40.641871]],[[-73.785793,40.641871],[-73.78575,40.641893],[-73.785633,40.641964],[-73.785532,40.642056],[-73.785188,40.642493],[-73.785098,40.64259],[-73.785005,40.642672],[-73.784801,40.642815],[-73.784639,40.642901],[-73.7845,40.642966],[-73.784359,40.643026],[-73.783245,40.643503],[-73.782873,40.643667],[-73.78199,40.64405],[-73.781261,40.644345],[-73.780428,40.644696],[-73.779898,40.644923],[-73.779622,40.645039],[-73.779484,40.645098],[-73.779334,40.645164],[-73.779216,40.645226],[-73.779111,40.645298],[-73.779046,40.645355],[-73.778991,40.645409],[-73.778938,40.64548],[-73.778896,40.645548],[-73.778867,40.645612],[-73.77884,40.645688],[-73.778826,40.645756],[-73.778819,40.645833],[-73.778821,40.645907],[-73.778835,40.645995],[-73.778868,40.646093],[-73.778916,40.646189],[-73.77897,40.646263],[-73.779031,40.646333],[-73.779086,40.646383],[-73.77915,40.646434],[-73.779228,40.646488],[-73.779666,40.646757],[-73.780108,40.64703],[-73.78054,40.647299],[-73.780921,40.647532],[-73.781296,40.647765],[-73.781407,40.64783],[-73.781502,40.647884],[-73.781583,40.647926],[-73.781682,40.64797],[-73.781771,40.648001],[-73.781855,40.648028],[-73.781964,40.648058],[-73.782106,40.648087],[-73.78273,40.648197],[-73.783536,40.64834],[-73.783948,40.648413],[-73.784186,40.64845],[-73.784379,40.648472],[-73.784583,40.648484],[-73.784819,40.64848],[-73.785048,40.64846],[-73.785207,40.648434],[-73.785316,40.648407],[-73.785388,40.64839],[-73.785523,40.648351],[-73.785644,40.648309],[-73.785761,40.648262],[-73.7859,40.648198],[-73.786055,40.648114],[-73.786167,40.648045],[-73.786357,40.647928],[-73.786508,40.647832],[-73.786674,40.647734],[-73.786797,40.64767],[-73.78694,40.647602],[-73.787085,40.647538],[-73.787295,40.647449],[-73.787534,40.647351]],[[-73.787534,40.647351],[-73.788252,40.647054]],[[-73.788252,40.647054],[-73.788466,40.646964],[-73.789204,40.646658],[-73.789593,40.646497],[-73.789824,40.646398],[-73.789985,40.646316],[-73.790123,40.646232],[-73.790299,40.646106],[-73.790504,40.64595],[-73.790706,40.645807],[-73.7909,40.64569],[-73.791052,40.645617],[-73.791198,40.645558],[-73.791339,40.645511],[-73.79153,40.645463],[-73.791693,40.645433],[-73.792062,40.645385],[-73.792383,40.645348]],[[-73.792383,40.645348],[-73.793201,40.645252],[-73.79363,40.6452]]]},"properties":{"agency":"JFK AirTrain","color":"#009E58","description":"Howard Beach","route":"Howard Beach","routeId":"HOWARD","shapeId":"metro-memory-AirTrainJFKHowardBeach-2752","source":"Metro Memory"}},{"type":"Feature","geometry":{"type":"MultiLineString","coordinates":[[[-73.809487,40.69858],[-73.81039,40.698233]],[[-73.810341,40.698129],[-73.809442,40.698475]],[[-73.808145,40.698977],[-73.808211,40.698952],[-73.808455,40.698857],[-73.809442,40.698475]],[[-73.80821,40.699077],[-73.80826,40.699055],[-73.80852,40.698955],[-73.809487,40.69858]],[[-73.81039,40.698233],[-73.811213,40.697919],[-73.811364,40.697862],[-73.811484,40.69782],[-73.811601,40.697781],[-73.81171,40.697748],[-73.812043,40.697648],[-73.812142,40.697616],[-73.812247,40.69758],[-73.812335,40.697546],[-73.81242,40.69751],[-73.812507,40.697467],[-73.812594,40.697418],[-73.812661,40.697375],[-73.812742,40.697315],[-73.812799,40.697266],[-73.812858,40.69721],[-73.812906,40.697155],[-73.812953,40.697096],[-73.812993,40.697035],[-73.813029,40.696976],[-73.813059,40.69691],[-73.813081,40.696854],[-73.813098,40.696797],[-73.813113,40.696735],[-73.813125,40.696664],[-73.813132,40.696596],[-73.813131,40.696533],[-73.813126,40.696472],[-73.813112,40.696392],[-73.813095,40.696326],[-73.813074,40.696263],[-73.813049,40.696202],[-73.813018,40.696131],[-73.81298,40.69606],[-73.812928,40.69597],[-73.812886,40.695902],[-73.81284,40.695825],[-73.812614,40.695456],[-73.812194,40.694717],[-73.812006,40.694374],[-73.811877,40.694144],[-73.811742,40.693901],[-73.811301,40.693105],[-73.810909,40.692402],[-73.810726,40.692072],[-73.810188,40.691107],[-73.809805,40.690436],[-73.809407,40.689737],[-73.808357,40.687897],[-73.807743,40.686824],[-73.807236,40.685903],[-73.807119,40.685671],[-73.806983,40.685403],[-73.80684,40.685107],[-73.806679,40.684776],[-73.806539,40.684481],[-73.80573,40.682792],[-73.805025,40.681323],[-73.804902,40.681069],[-73.804583,40.680403],[-73.804173,40.679559],[-73.803883,40.678946],[-73.803327,40.677786],[-73.803061,40.67723],[-73.802706,40.676494],[-73.802413,40.675882]],[[-73.802592,40.676384],[-73.802896,40.677017],[-73.803116,40.67748],[-73.803231,40.677722],[-73.803456,40.678183],[-73.803962,40.679236],[-73.804327,40.679996],[-73.804761,40.680901],[-73.804898,40.681189],[-73.805102,40.681607],[-73.805459,40.682355],[-73.805634,40.682717],[-73.805731,40.682916],[-73.805802,40.683067],[-73.806099,40.683687],[-73.806589,40.684713],[-73.806869,40.685293],[-73.807029,40.685614],[-73.807227,40.686002],[-73.807449,40.686409],[-73.807611,40.686696],[-73.807847,40.687113],[-73.808207,40.687741],[-73.808504,40.688267],[-73.808754,40.688703],[-73.808982,40.689099],[-73.809198,40.689481],[-73.809482,40.689979],[-73.809888,40.690687],[-73.810118,40.691093],[-73.810401,40.691599],[-73.810572,40.691911],[-73.810727,40.692186],[-73.810865,40.692439],[-73.811266,40.693155],[-73.811522,40.693615],[-73.811709,40.693951],[-73.811891,40.69428],[-73.812106,40.694665],[-73.812362,40.695126],[-73.812525,40.695414],[-73.812654,40.69563],[-73.812855,40.695951],[-73.812894,40.696016],[-73.812933,40.696088],[-73.812973,40.696165],[-73.813003,40.696233],[-73.813032,40.696308],[-73.81305,40.696379],[-73.813066,40.696447],[-73.813072,40.696507],[-73.813073,40.696565],[-73.813072,40.696625],[-73.813064,40.696691],[-73.81305,40.696752],[-73.813035,40.696817],[-73.813014,40.696873],[-73.812991,40.696925],[-73.812959,40.696992],[-73.812921,40.697049],[-73.812883,40.697099],[-73.81284,40.69715],[-73.812782,40.69721],[-73.812728,40.69726],[-73.812668,40.697309],[-73.81259,40.697364],[-73.812506,40.697415],[-73.812426,40.697456],[-73.812351,40.69749],[-73.812272,40.697523],[-73.812182,40.697556],[-73.812093,40.697586],[-73.811992,40.697618],[-73.8109,40.697941],[-73.810785,40.697975],[-73.810669,40.698012],[-73.810552,40.698054],[-73.810422,40.698102],[-73.810341,40.698129]],[[-73.801961,40.675071],[-73.80245,40.67609],[-73.802592,40.676384]],[[-73.802413,40.675882],[-73.802246,40.675537]],[[-73.802246,40.675537],[-73.801966,40.674951],[-73.80182,40.674646],[-73.80172,40.674415],[-73.801609,40.674136],[-73.801524,40.673892],[-73.801442,40.67363],[-73.801366,40.673346],[-73.801311,40.673103],[-73.801263,40.672838],[-73.801233,40.67263],[-73.801206,40.67236],[-73.801185,40.672043],[-73.80117,40.671724],[-73.801159,40.671316],[-73.801155,40.670655],[-73.801161,40.670283],[-73.801177,40.669912],[-73.801197,40.669511],[-73.801225,40.669194],[-73.801245,40.669041],[-73.801263,40.668921],[-73.801311,40.668687],[-73.801344,40.668545],[-73.801379,40.668417],[-73.801443,40.668219],[-73.801474,40.668138],[-73.801525,40.668002],[-73.801606,40.667821],[-73.801711,40.66761],[-73.801771,40.667495],[-73.801869,40.667329],[-73.801989,40.667137],[-73.802135,40.666899],[-73.802287,40.666658],[-73.802483,40.666335],[-73.802618,40.666083],[-73.802758,40.665808],[-73.802871,40.665565],[-73.802952,40.665375],[-73.8031,40.664981],[-73.803197,40.664689],[-73.803254,40.664498],[-73.803288,40.664373],[-73.803305,40.664301],[-73.803345,40.664133]],[[-73.803443,40.660447],[-73.803403,40.662083],[-73.803406,40.662279],[-73.803417,40.662474],[-73.803433,40.66283],[-73.803439,40.662997],[-73.803439,40.663125],[-73.803424,40.663348],[-73.80336,40.663775],[-73.803301,40.664081],[-73.80325,40.664293],[-73.803233,40.664363],[-73.803215,40.664421],[-73.803157,40.664623],[-73.803093,40.664831],[-73.802961,40.665203],[-73.802897,40.665362],[-73.802804,40.665578],[-73.802678,40.665844],[-73.802568,40.666062],[-73.802487,40.666212],[-73.802399,40.666369],[-73.802118,40.666827],[-73.801937,40.667118],[-73.801868,40.667227],[-73.801738,40.667448],[-73.801659,40.667594],[-73.801634,40.667639],[-73.801534,40.667846],[-73.801473,40.667986],[-73.801419,40.668125],[-73.801395,40.668188],[-73.80135,40.66832],[-73.801301,40.668485],[-73.801255,40.668666],[-73.801218,40.668858],[-73.801196,40.668984],[-73.801173,40.669159],[-73.80115,40.669395],[-73.801132,40.669656],[-73.801121,40.669894],[-73.801106,40.670224],[-73.8011,40.670491],[-73.801096,40.671062],[-73.801105,40.671454],[-73.801117,40.671857],[-73.801139,40.672205],[-73.801162,40.672488],[-73.801193,40.672749],[-73.801221,40.672933],[-73.801258,40.673118],[-73.801326,40.673413],[-73.801412,40.673726],[-73.801504,40.674005],[-73.801621,40.674322],[-73.801692,40.674496],[-73.801768,40.674664],[-73.801961,40.675071]],[[-73.803345,40.664133],[-73.803418,40.663781],[-73.80346,40.663514],[-73.803488,40.663285],[-73.80351,40.663046],[-73.803524,40.66281],[-73.803538,40.662318],[-73.803548,40.661963],[-73.803561,40.661375],[-73.803566,40.661156],[-73.803578,40.660775],[-73.803585,40.660456]],[[-73.803585,40.660456],[-73.803596,40.660069],[-73.803611,40.659426],[-73.803617,40.659271],[-73.80362,40.659173],[-73.803629,40.659089],[-73.803642,40.659028],[-73.803663,40.658961],[-73.8037,40.658879],[-73.803736,40.658818],[-73.803789,40.658743],[-73.803841,40.658689],[-73.803908,40.658627],[-73.803979,40.658575],[-73.804058,40.658525],[-73.80415,40.658478],[-73.804305,40.658416],[-73.805166,40.658094],[-73.8053,40.658036],[-73.805374,40.657996],[-73.805459,40.657942],[-73.805544,40.657873],[-73.805597,40.65782],[-73.805647,40.657763],[-73.805716,40.657685]],[[-73.805931,40.657356],[-73.805759,40.657553],[-73.80567,40.657651],[-73.805528,40.65777],[-73.805359,40.65788],[-73.805219,40.657947],[-73.805023,40.658023],[-73.804697,40.658144],[-73.80443,40.658245],[-73.804227,40.658322],[-73.804063,40.658391],[-73.803969,40.65844],[-73.803853,40.658514],[-73.803759,40.658589],[-73.803688,40.658668],[-73.803634,40.658739],[-73.803599,40.658787],[-73.803558,40.658856],[-73.80353,40.658918],[-73.803496,40.659037],[-73.803477,40.65916],[-73.803472,40.659306],[-73.803469,40.659435],[-73.803456,40.660074],[-73.803443,40.660447]],[[-73.805716,40.657685],[-73.806273,40.657039]],[[-73.807009,40.655183],[-73.807006,40.655345],[-73.806989,40.655534],[-73.80696,40.655691],[-73.80692,40.65585],[-73.80687,40.656009],[-73.806788,40.656205],[-73.806683,40.6564],[-73.806571,40.656578],[-73.806454,40.656735],[-73.806239,40.656995],[-73.805965,40.657312]],[[-73.805965,40.657312],[-73.805931,40.657356]],[[-73.806273,40.657039],[-73.806496,40.656774],[-73.806606,40.656628],[-73.806682,40.656512],[-73.806758,40.656386],[-73.806806,40.6563],[-73.806842,40.656226],[-73.806877,40.656148],[-73.806913,40.656064],[-73.806947,40.655973],[-73.806977,40.655882],[-73.807004,40.655778],[-73.807028,40.655677],[-73.807046,40.655578],[-73.80706,40.655478],[-73.807067,40.655377],[-73.807072,40.65518]],[[-73.807072,40.65518],[-73.807067,40.655078],[-73.807055,40.65496],[-73.807017,40.65473],[-73.806924,40.654349],[-73.806868,40.654165],[-73.806802,40.653976],[-73.806651,40.653601],[-73.806517,40.653317],[-73.806384,40.653073],[-73.80627,40.652879],[-73.806156,40.652696],[-73.805751,40.652074],[-73.805301,40.651396],[-73.805055,40.65104],[-73.804927,40.650868],[-73.804851,40.650767]],[[-73.804537,40.650446],[-73.804881,40.650897],[-73.80507,40.651158],[-73.805322,40.651523],[-73.805672,40.652059],[-73.806035,40.652607],[-73.806276,40.652994],[-73.80636,40.653142],[-73.806477,40.653361],[-73.806559,40.653535],[-73.806624,40.653692],[-73.806704,40.653885],[-73.806777,40.654085],[-73.806829,40.654247],[-73.806872,40.65439],[-73.806935,40.654651],[-73.806975,40.654845],[-73.807,40.65503],[-73.807009,40.655183]],[[-73.804851,40.650767],[-73.80475,40.650634],[-73.804318,40.650072]],[[-73.798777,40.645463],[-73.799078,40.645567],[-73.799382,40.645687],[-73.799689,40.645825],[-73.799916,40.645939],[-73.800194,40.646094],[-73.800378,40.646203],[-73.80069,40.646414],[-73.800897,40.64657],[-73.801152,40.646782],[-73.801526,40.647129],[-73.802105,40.64767],[-73.802574,40.648129],[-73.802921,40.64849],[-73.803285,40.648895],[-73.803728,40.649403],[-73.803976,40.649713],[-73.804135,40.649921],[-73.804217,40.650026],[-73.80451,40.65041]],[[-73.80451,40.65041],[-73.804537,40.650446]],[[-73.804318,40.650072],[-73.804265,40.650002],[-73.803971,40.649623],[-73.803795,40.649404],[-73.803596,40.649166],[-73.803494,40.649045],[-73.803351,40.648882],[-73.803246,40.648762],[-73.803028,40.648524],[-73.802795,40.648278],[-73.802545,40.648023],[-73.802391,40.647868],[-73.80223,40.647711],[-73.802051,40.64754],[-73.801767,40.647277],[-73.801489,40.64702],[-73.801118,40.646685],[-73.800921,40.646529],[-73.800705,40.646367],[-73.800536,40.646252],[-73.800227,40.646059],[-73.799914,40.645888],[-73.799762,40.645812],[-73.799501,40.645691],[-73.799268,40.645592],[-73.79903,40.645503],[-73.798792,40.645425]],[[-73.79783,40.645224],[-73.79817,40.645282],[-73.79841,40.645349],[-73.798777,40.645463]],[[-73.798792,40.645425],[-73.798333,40.645289],[-73.798097,40.645228],[-73.797846,40.64518]],[[-73.797846,40.64518],[-73.797506,40.645124],[-73.79716,40.645077]],[[-73.797157,40.645121],[-73.79743,40.645154],[-73.797638,40.645186],[-73.79783,40.645224]],[[-73.794477,40.645116],[-73.795332,40.645058],[-73.795886,40.645037],[-73.796359,40.645057],[-73.796715,40.645078],[-73.797157,40.645121]],[[-73.79716,40.645077],[-73.796581,40.645026],[-73.795886,40.644996],[-73.795208,40.645022],[-73.794475,40.645075]],[[-73.794475,40.645075],[-73.793693,40.645131]],[[-73.79363,40.6452],[-73.793848,40.645177],[-73.794477,40.645116]],[[-73.792363,40.645216],[-73.792129,40.645234],[-73.791902,40.645246],[-73.791702,40.645247],[-73.791519,40.645234],[-73.791375,40.645213],[-73.791244,40.645188],[-73.791116,40.645153],[-73.790986,40.645109],[-73.790874,40.645063],[-73.790758,40.645009],[-73.790659,40.644953],[-73.790565,40.644892],[-73.790442,40.6448],[-73.790335,40.644702],[-73.790239,40.644599],[-73.790081,40.644394]],[[-73.793693,40.645131],[-73.792953,40.64518],[-73.792363,40.645216]],[[-73.790081,40.644394],[-73.789667,40.643855]],[[-73.789667,40.643855],[-73.789362,40.643455],[-73.78907,40.643071],[-73.788833,40.642761]],[[-73.788833,40.642761],[-73.788639,40.642512],[-73.788578,40.642442],[-73.788546,40.64241],[-73.788514,40.642378],[-73.788438,40.642319],[-73.788364,40.64227],[-73.788262,40.642215],[-73.788174,40.642179],[-73.788075,40.642146],[-73.787962,40.642116],[-73.787561,40.642035],[-73.786603,40.641844],[-73.786471,40.641817],[-73.786341,40.641797],[-73.786244,40.641788],[-73.786126,40.641789],[-73.786045,40.641799],[-73.785953,40.641817],[-73.785884,40.641832],[-73.785793,40.641871]],[[-73.785793,40.641871],[-73.78575,40.641893],[-73.785633,40.641964],[-73.785532,40.642056],[-73.785188,40.642493],[-73.785098,40.64259],[-73.785005,40.642672],[-73.784801,40.642815],[-73.784639,40.642901],[-73.7845,40.642966],[-73.784359,40.643026],[-73.783245,40.643503],[-73.782873,40.643667],[-73.78199,40.64405],[-73.781261,40.644345],[-73.780428,40.644696],[-73.779898,40.644923],[-73.779622,40.645039],[-73.779484,40.645098],[-73.779334,40.645164],[-73.779216,40.645226],[-73.779111,40.645298],[-73.779046,40.645355],[-73.778991,40.645409],[-73.778938,40.64548],[-73.778896,40.645548],[-73.778867,40.645612],[-73.77884,40.645688],[-73.778826,40.645756],[-73.778819,40.645833],[-73.778821,40.645907],[-73.778835,40.645995],[-73.778868,40.646093],[-73.778916,40.646189],[-73.77897,40.646263],[-73.779031,40.646333],[-73.779086,40.646383],[-73.77915,40.646434],[-73.779228,40.646488],[-73.779666,40.646757],[-73.780108,40.64703],[-73.78054,40.647299],[-73.780921,40.647532],[-73.781296,40.647765],[-73.781407,40.64783],[-73.781502,40.647884],[-73.781583,40.647926],[-73.781682,40.64797],[-73.781771,40.648001],[-73.781855,40.648028],[-73.781964,40.648058],[-73.782106,40.648087],[-73.78273,40.648197],[-73.783536,40.64834],[-73.783948,40.648413],[-73.784186,40.64845],[-73.784379,40.648472],[-73.784583,40.648484],[-73.784819,40.64848],[-73.785048,40.64846],[-73.785207,40.648434],[-73.785316,40.648407],[-73.785388,40.64839],[-73.785523,40.648351],[-73.785644,40.648309],[-73.785761,40.648262],[-73.7859,40.648198],[-73.786055,40.648114],[-73.786167,40.648045],[-73.786357,40.647928],[-73.786508,40.647832],[-73.786674,40.647734],[-73.786797,40.64767],[-73.78694,40.647602],[-73.787085,40.647538],[-73.787295,40.647449],[-73.787534,40.647351]],[[-73.787534,40.647351],[-73.788252,40.647054]],[[-73.788252,40.647054],[-73.788466,40.646964],[-73.789204,40.646658],[-73.789593,40.646497],[-73.789824,40.646398],[-73.789985,40.646316],[-73.790123,40.646232],[-73.790299,40.646106],[-73.790504,40.64595],[-73.790706,40.645807],[-73.7909,40.64569],[-73.791052,40.645617],[-73.791198,40.645558],[-73.791339,40.645511],[-73.79153,40.645463],[-73.791693,40.645433],[-73.792062,40.645385],[-73.792383,40.645348]],[[-73.792383,40.645348],[-73.793201,40.645252],[-73.79363,40.6452]]]},"properties":{"agency":"JFK AirTrain","color":"#EF3941","description":"Jamaica","route":"Jamaica","routeId":"JAMAICA","shapeId":"metro-memory-AirTrainJFKJamaica-2753","source":"Metro Memory"}},{"type":"Feature","geometry":{"type":"MultiLineString","coordinates":[[[-73.790027,40.64454],[-73.790285,40.64488],[-73.790344,40.644972],[-73.790395,40.645061],[-73.790433,40.645159],[-73.790462,40.645257],[-73.790473,40.64535],[-73.790477,40.645438],[-73.79046,40.645576],[-73.790419,40.645705],[-73.790361,40.645819],[-73.790289,40.64592],[-73.7902,40.646016],[-73.790124,40.646086],[-73.790103,40.646105],[-73.78993,40.646216],[-73.789748,40.646304],[-73.789324,40.646484]],[[-73.789542,40.643909],[-73.789967,40.644462]],[[-73.789967,40.644462],[-73.790027,40.64454]],[[-73.789242,40.643501],[-73.789542,40.643909]],[[-73.78875,40.642864],[-73.788953,40.643132],[-73.789242,40.643501]],[[-73.785939,40.641933],[-73.78601,40.641917],[-73.786101,40.641904],[-73.786204,40.641898],[-73.786315,40.641903],[-73.786478,40.64193],[-73.78697,40.64203],[-73.787196,40.642075],[-73.787916,40.642219],[-73.788051,40.642255],[-73.788197,40.642312],[-73.788293,40.642366],[-73.788357,40.64241],[-73.788417,40.642459],[-73.788478,40.642521],[-73.788534,40.642589],[-73.78875,40.642864]],[[-73.787477,40.647251],[-73.78735,40.647304],[-73.787252,40.647344],[-73.787121,40.647405],[-73.787011,40.647461],[-73.786889,40.647529],[-73.786776,40.647599],[-73.786646,40.647681],[-73.786464,40.647795],[-73.786286,40.647907],[-73.786153,40.647988],[-73.786048,40.648048],[-73.785932,40.648108],[-73.785808,40.648167],[-73.785703,40.648209],[-73.785604,40.648245],[-73.785502,40.648275],[-73.785367,40.64831],[-73.785194,40.648345],[-73.785044,40.648368],[-73.784866,40.648382],[-73.784719,40.648385],[-73.78456,40.648381],[-73.784371,40.648365],[-73.784205,40.648343],[-73.784067,40.648321],[-73.783767,40.648269],[-73.783566,40.648234],[-73.782765,40.648092],[-73.782207,40.648006],[-73.781996,40.647965],[-73.781871,40.647934],[-73.781761,40.647898],[-73.781677,40.647865],[-73.781558,40.647808],[-73.781474,40.647761],[-73.781284,40.647643],[-73.781095,40.647523],[-73.780732,40.6473],[-73.780501,40.647154],[-73.780375,40.647051],[-73.779757,40.646672],[-73.779351,40.646422],[-73.779217,40.646335],[-73.779158,40.646286],[-73.779096,40.646226],[-73.77904,40.646156],[-73.778998,40.646082],[-73.778971,40.646016],[-73.778954,40.645951],[-73.778945,40.645872],[-73.778948,40.645791],[-73.778965,40.645712],[-73.778988,40.645648],[-73.779026,40.645579],[-73.779072,40.645513],[-73.779138,40.645443],[-73.7792,40.645393],[-73.779271,40.645347],[-73.77936,40.645299],[-73.779471,40.645248],[-73.779595,40.645195],[-73.7798,40.64511],[-73.780213,40.644935],[-73.780566,40.644784],[-73.78088,40.644653],[-73.781191,40.64452],[-73.781612,40.64434],[-73.782071,40.64414],[-73.782933,40.643778],[-73.783889,40.643375],[-73.784272,40.643212],[-73.78446,40.64313],[-73.784588,40.64307],[-73.784699,40.643012],[-73.784799,40.642954],[-73.784887,40.642891],[-73.784974,40.642823],[-73.785061,40.642744],[-73.785137,40.642663],[-73.785232,40.642554],[-73.78549,40.642225],[-73.785571,40.642133],[-73.785645,40.64207],[-73.785722,40.642021],[-73.78582,40.641973],[-73.785939,40.641933]],[[-73.789324,40.646484],[-73.78913,40.646565],[-73.788397,40.646869],[-73.788185,40.646959]],[[-73.788185,40.646959],[-73.787477,40.647251]]]},"properties":{"agency":"JFK AirTrain","color":"#FDB827","description":"All Terminals Loop","route":"All Terminals Loop","routeId":"TERMINALS","shapeId":"metro-memory-AirTrainJFKAllTerminals-2754","source":"Metro Memory"}}]}
