{"type":"FeatureCollection","metadata":{"generatedAt":"2026-09-23T03:14:28.749Z","source":"PATH GTFS","sourceUrl":"https://rapid.nationalrtap.org/GTFSFileManagement/UserUploadFiles/14843/PATHGTFS.zip","routeCount":4,"feedVersion":null,"validFrom":"20260720","validTo":"20261114"},"features":[{"type":"Feature","properties":{"agency":"PATH","color":"#4D92FB","description":"Hoboken - 33rd Street","offset":2.4,"route":"HOB-33","routeId":"BLU","shapeId":"HOB_33"},"geometry":{"type":"LineString","coordinates":[[-74.028709,40.735501],[-74.030884,40.735401],[-74.031857,40.735554],[-74.032794,40.735616],[-74.033193,40.735616],[-74.033436,40.735539],[-74.033592,40.735341],[-74.033687,40.735039],[-74.033873,40.733112],[-74.033911,40.732976],[-74.033802,40.732684],[-74.033643,40.732422],[-74.033438,40.732227],[-74.033006,40.732153],[-74.0268,40.731762],[-74.010817,40.731314],[-74.008286,40.731073],[-74.008065,40.731074],[-74.007977,40.731123],[-74.007878,40.731395],[-74.007535,40.732728],[-74.007423,40.732858],[-74.007368,40.73289],[-74.003935,40.73343],[-74.002717,40.733653],[-73.999377,40.734097],[-73.999062,40.734216],[-73.99897,40.734319],[-73.998268,40.735376],[-73.995964,40.738516],[-73.995576,40.73901],[-73.995119,40.739676],[-73.994454,40.74057],[-73.994058,40.741163],[-73.993102,40.742467],[-73.992576,40.743133],[-73.991238,40.74503],[-73.988633,40.748591]]}},{"type":"Feature","properties":{"agency":"PATH","color":"#65C100","description":"Hoboken - World Trade Center","offset":2.4,"route":"HOB-WTC","routeId":"GRE","shapeId":"HOB_WTC"},"geometry":{"type":"LineString","coordinates":[[-74.028709,40.735501],[-74.030884,40.735401],[-74.031857,40.735554],[-74.032794,40.735616],[-74.033193,40.735616],[-74.033436,40.735539],[-74.033592,40.735341],[-74.033687,40.735039],[-74.033873,40.733112],[-74.034023,40.732568],[-74.034733,40.729574],[-74.034762,40.729322],[-74.034753,40.729032],[-74.034533,40.727848],[-74.034523,40.727454],[-74.034645,40.727091],[-74.034886,40.726648],[-74.035315,40.726085],[-74.035613,40.725208],[-74.035722,40.724704],[-74.035938,40.724181],[-74.036212,40.72291],[-74.036379,40.721761],[-74.036602,40.721022],[-74.036784,40.720202],[-74.037084,40.718202],[-74.036904,40.717896],[-74.036559,40.717693],[-74.036099,40.717548],[-74.033913,40.716979],[-74.032451,40.716798],[-74.023802,40.715228],[-74.01629,40.71353],[-74.014091,40.712944],[-74.012522,40.712248],[-74.012382,40.712147]]}},{"type":"Feature","properties":{"agency":"PATH","color":"#D93A30","description":"Newark - World Trade Center","offset":-2.4,"route":"NWK-WTC","routeId":"RED","shapeId":"NWK_WTC"},"geometry":{"type":"LineString","coordinates":[[-74.163973,40.734348],[-74.163058,40.735016],[-74.161698,40.735928],[-74.159383,40.737217],[-74.153596,40.740554],[-74.153175,40.74078],[-74.152554,40.741016],[-74.152141,40.741143],[-74.151101,40.741366],[-74.139723,40.742366],[-74.130984,40.74303],[-74.126641,40.743324],[-74.120099,40.743204],[-74.117921,40.743139],[-74.116806,40.743059],[-74.114629,40.742808],[-74.104249,40.741796],[-74.088478,40.74123],[-74.087385,40.74115],[-74.086416,40.741013],[-74.085759,40.740883],[-74.080999,40.73954],[-74.077786,40.738701],[-74.075223,40.738066],[-74.073415,40.737583],[-74.069875,40.736552],[-74.068278,40.736061],[-74.067946,40.735923],[-74.066773,40.735343],[-74.065943,40.734811],[-74.065525,40.734507],[-74.064439,40.732804],[-74.063511,40.732095],[-74.062021,40.73141],[-74.061728,40.731205],[-74.060949,40.730555],[-74.059638,40.729373],[-74.059362,40.72919],[-74.05904,40.728884],[-74.057123,40.727203],[-74.056723,40.726768],[-74.055285,40.724702],[-74.054752,40.723986],[-74.053985,40.723202],[-74.053435,40.722824],[-74.052833,40.722594],[-74.051571,40.722218],[-74.048577,40.721206],[-74.045085,40.720102],[-74.043307,40.719709],[-74.041538,40.719122],[-74.039984,40.718502],[-74.038734,40.718086],[-74.037489,40.717758],[-74.036653,40.717581],[-74.035484,40.717402],[-74.033913,40.716979],[-74.032451,40.716798],[-74.023802,40.715228],[-74.01629,40.71353],[-74.014091,40.712944],[-74.012522,40.712248],[-74.012382,40.712147]]}},{"type":"Feature","properties":{"agency":"PATH","color":"#FF9900","description":"Journal Square - 33rd Street","offset":-2.4,"route":"JSQ-33","routeId":"YEL","shapeId":"JSQ_33"},"geometry":{"type":"LineString","coordinates":[[-74.062958,40.731839],[-74.062021,40.73141],[-74.061728,40.731205],[-74.060949,40.730555],[-74.059638,40.729373],[-74.059362,40.72919],[-74.05904,40.728884],[-74.057123,40.727203],[-74.056723,40.726768],[-74.055285,40.724702],[-74.054752,40.723986],[-74.053985,40.723202],[-74.053435,40.722824],[-74.052833,40.722594],[-74.051571,40.722218],[-74.048577,40.721206],[-74.045085,40.720102],[-74.043307,40.719709],[-74.041538,40.719122],[-74.039984,40.718502],[-74.038734,40.718086],[-74.037915,40.718065],[-74.037084,40.718202],[-74.036784,40.720202],[-74.036602,40.721022],[-74.036379,40.721761],[-74.036212,40.72291],[-74.035938,40.724181],[-74.035722,40.724704],[-74.035613,40.725208],[-74.035315,40.726085],[-74.034886,40.726648],[-74.034645,40.727091],[-74.034523,40.727454],[-74.034533,40.727848],[-74.034753,40.729032],[-74.034762,40.729322],[-74.034733,40.729574],[-74.034476,40.730661],[-74.034084,40.731043],[-74.033766,40.731406],[-74.033352,40.731707],[-74.0329,40.731968],[-74.032395,40.732087],[-74.032062,40.732096],[-74.0268,40.731762],[-74.010817,40.731314],[-74.008286,40.731073],[-74.008065,40.731074],[-74.007977,40.731123],[-74.007878,40.731395],[-74.007535,40.732728],[-74.007423,40.732858],[-74.007368,40.73289],[-74.003935,40.73343],[-74.002717,40.733653],[-74.000138,40.73399],[-73.999377,40.734097],[-73.999271,40.73413],[-73.999062,40.734216],[-73.999006,40.734267],[-73.998268,40.735376],[-73.995964,40.738516],[-73.995576,40.73901],[-73.995119,40.739676],[-73.994454,40.74057],[-73.994058,40.741163],[-73.993102,40.742467],[-73.992576,40.743133],[-73.991238,40.74503],[-73.988633,40.748591]]}}]}
